{"type":"FeatureCollection","name":"floodroute_simulated_flood_zones","crs":{"type":"name","properties":{"name":"urn:ogc:def:crs:OGC:1.3:CRS84"}},"features":[{"type":"Feature","geometry":{"type":"Polygon","coordinates":[[[80.182805,13.0322],[80.182747,13.032703],[80.182577,13.033181],[80.182302,13.03361],[80.181937,13.033968],[80.1815,13.034237],[80.181013,13.034404],[80.1805,13.034461],[80.179987,13.034404],[80.1795,13.034237],[80.179063,13.033968],[80.178698,13.03361],[80.178423,13.033181],[80.178253,13.032703],[80.178195,13.0322],[80.178253,13.031697],[80.178423,13.031219],[80.178698,13.03079],[80.179063,13.030432],[80.1795,13.030163],[80.179987,13.029996],[80.1805,13.029939],[80.181013,13.029996],[80.1815,13.030163],[80.181937,13.030432],[80.182302,13.03079],[80.182577,13.031219],[80.182747,13.031697],[80.182805,13.0322]]]},"properties":{"id":"flood_01","name":"SRM Ramapuram front stretch (simulated)","severity":"moderate","depth_m":0.4,"base_depth_m":0.25,"flood_level":"SEVERE","radius_m":250,"simulated":true}},{"type":"Feature","geometry":{"type":"Polygon","coordinates":[[[80.199642,13.031],[80.199577,13.031563],[80.199386,13.032099],[80.199078,13.032579],[80.19867,13.03298],[80.19818,13.033281],[80.197634,13.033469],[80.19706,13.033532],[80.196486,13.033469],[80.19594,13.033281],[80.19545,13.03298],[80.195042,13.032579],[80.194734,13.032099],[80.194543,13.031563],[80.194478,13.031],[80.194543,13.030437],[80.194734,13.029901],[80.195042,13.029421],[80.19545,13.02902],[80.19594,13.028719],[80.196486,13.028531],[80.19706,13.028468],[80.197634,13.028531],[80.19818,13.028719],[80.19867,13.02902],[80.199078,13.029421],[80.199386,13.029901],[80.199577,13.030437],[80.199642,13.031]]]},"properties":{"id":"flood_02","name":"Mount-Poonamallee Rd low stretch (simulated)","severity":"severe","depth_m":0.64,"base_depth_m":0.4,"flood_level":"SEVERE","radius_m":280,"simulated":true}},{"type":"Feature","geometry":{"type":"Polygon","coordinates":[[[80.200965,13.012],[80.200865,13.012865],[80.200572,13.013687],[80.2001,13.014425],[80.199472,13.01504],[80.19872,13.015504],[80.197882,13.015791],[80.197,13.015889],[80.196118,13.015791],[80.19528,13.015504],[80.194528,13.01504],[80.1939,13.014425],[80.193428,13.013687],[80.193135,13.012865],[80.193035,13.012],[80.193135,13.011135],[80.193428,13.010313],[80.1939,13.009575],[80.194528,13.00896],[80.19528,13.008496],[80.196118,13.008209],[80.197,13.008111],[80.197882,13.008209],[80.19872,13.008496],[80.199472,13.00896],[80.2001,13.009575],[80.200572,13.010313],[80.200865,13.011135],[80.200965,13.012]]]},"properties":{"id":"flood_03","name":"Jaffer Street / south Guindy stretch (simulated)","severity":"moderate","depth_m":0.56,"base_depth_m":0.35,"flood_level":"SEVERE","radius_m":430,"simulated":true}},{"type":"Feature","geometry":{"type":"Polygon","coordinates":[[[80.20195,13.0005],[80.201876,13.001144],[80.201658,13.001756],[80.201307,13.002304],[80.200839,13.002763],[80.20028,13.003107],[80.199656,13.003321],[80.199,13.003394],[80.198344,13.003321],[80.19772,13.003107],[80.197161,13.002763],[80.196693,13.002304],[80.196342,13.001756],[80.196124,13.001144],[80.19605,13.0005],[80.196124,12.999856],[80.196342,12.999244],[80.196693,12.998696],[80.197161,12.998237],[80.19772,12.997893],[80.198344,12.997679],[80.199,12.997606],[80.199656,12.997679],[80.20028,12.997893],[80.200839,12.998237],[80.201307,12.998696],[80.201658,12.999244],[80.201876,12.999856],[80.20195,13.0005]]]},"properties":{"id":"flood_04","name":"Kathipara approach low ground (simulated)","severity":"severe","depth_m":0.88,"base_depth_m":0.55,"flood_level":"SEVERE","radius_m":320,"simulated":true}}]}